IRIDIUM 57 [-]          
1 25273U 98019B   24012.96531762  .00000565  00000+0  19135-3 0  9991
2 25273  86.3967   3.5321 0002216  87.6741 272.4709 14.35042489350018
IRIDIUM 69 [-]          
1 25319U 98026A   24012.87608981  .00000853  00000+0  26604-3 0  9997
2 25319  86.4001 315.3534 0001394  11.5998 348.5233 14.39743572348261
IRIDIUM 71 [-]          
1 25320U 98026B   24012.91097141  .00000827  00000+0  25628-3 0  9990
2 25320  86.3991 310.1397 0003352  46.5469 313.6009 14.40071064348544
IRIDIUM 73 [-]          
1 25344U 98032C   24013.17490163  .00000931  00000+0  23409-3 0  9994
2 25344  86.4411 267.6858 0001740  69.6458 290.4934 14.50237637355312
IRIDIUM 82 [-]          
1 25467U 98051A   24012.98576536  .00014791  00000+0  82085-3 0  9992
2 25467  86.3966 359.4611 0143282  72.5909 289.0934 15.05162400344959
IRIDIUM 2 [-]           
1 25527U 98066A   24013.14202872  .00052276  00000+0  90798-3 0  9993
2 25527  85.5136  42.7290 0004318 155.8552 204.2909 15.50620020383025
